{"fetched_at":"2026-03-30T09:12:31Z","count":15922,"tles":[{"name":"STARLINK-11617 [DTC]","line1":"1 63184U 25048B   26087.73372966  .00350771  00000+0  26114-2 0  9995","line2":"2 63184  43.0005 205.3440 0000362 308.6760  51.4076 15.70947093 61516","category":"Starlink"}]}